[{"OBJECT_NAME":"HAWK-7C","OBJECT_ID":"2023-054Y","EPOCH":"2026-03-09T16:32:02.440032","MEAN_MOTION":15.26207266,"ECCENTRICITY":0.00036507,"INCLINATION":97.2829,"RA_OF_ASC_NODE":317.5849,"ARG_OF_PERICENTER":52.209,"MEAN_ANOMALY":307.9479,"EPHEMERIS_TYPE":0,"CLASSIFICATION_TYPE":"U","NORAD_CAT_ID":56200,"ELEMENT_SET_NO":999,"REV_AT_EPOCH":16184,"BSTAR":0.0003098019,"MEAN_MOTION_DOT":7.947e-5,"MEAN_MOTION_DDOT":0},{"OBJECT_NAME":"STARLINK-31075","OBJECT_ID":"2023-200F","EPOCH":"2026-03-08T08:38:08.441952","MEAN_MOTION":15.26747945,"ECCENTRICITY":0.00017182,"INCLINATION":43.0013,"RA_OF_ASC_NODE":175.8265,"ARG_OF_PERICENTER":190.316,"MEAN_ANOMALY":169.7657,"EPHEMERIS_TYPE":0,"CLASSIFICATION_TYPE":"U","NORAD_CAT_ID":58594,"ELEMENT_SET_NO":999,"REV_AT_EPOCH":12341,"BSTAR":2.009507e-5,"MEAN_MOTION_DOT":2.79e-6,"MEAN_MOTION_DDOT":0}]
